CUTE-1 (CO-55)          
1 27844U 03031E   23209.45911687  .00000394  00000+0  19495-3 0  9995
2 27844  98.6779 216.1113 0010015  13.7002 346.4446 14.22826571 41608
CUBESAT XI-IV (CO-57)   
1 27848U 03031J   23209.48450169  .00000334  00000+0  16984-3 0  9999
2 27848  98.6816 216.5363 0010215  28.1075 332.0653 14.22331287 41377
CUBESAT XI-V            
1 28895U 05043F   23209.30388513  .00001622  00000+0  30585-3 0  9995
2 28895  98.1586 341.0636 0015118 305.0965  54.8820 14.65810756946838
CUTE-1.7+APD II (CO-65) 
1 32785U 08021C   23209.29591283  .00003637  00000+0  35842-3 0  9994
2 32785  97.7075 174.3839 0011172 334.4764  25.5902 14.92608518826957
AAUSAT-II               
1 32788U 08021F   23209.39123208  .00008626  00000+0  61600-3 0  9990
2 32788  97.5617 187.9189 0006966 194.4010 165.7019 15.04727608829305
DELFI-C3 (DO-64)        
1 32789U 08021G   23209.05585608  .00072946  00000+0  16904-2 0  9992
2 32789  97.2999 230.4110 0002039  13.2802 346.8499 15.42161543833679
SEEDS II (CO-66)        
1 32791U 08021J   23209.38104091  .00005458  00000+0  47621-3 0  9999
2 32791  97.6565 179.7701 0010108 273.3213  86.6852 14.97204925827820
SWISSCUBE               
1 35932U 09051B   23209.57900396  .00001043  00000+0  23855-3 0  9995
2 35932  98.5161  80.9081 0006322 234.3960 125.6650 14.57832226735246
BEESAT-1                
1 35933U 09051C   23209.47504450  .00000899  00000+0  20748-3 0  9992
2 35933  98.5089  82.0878 0004451 248.5559 111.5164 14.57726890735305
ITUPSAT1                
1 35935U 09051E   23209.13015146  .00000826  00000+0  19543-3 0  9997
2 35935  98.5189  81.6652 0006705 257.0251 103.0198 14.56768601734926
TISAT 1                 
1 36799U 10035E   23209.53412838  .00005095  00000+0  45086-3 0  9997
2 36799  98.1328  80.7862 0010608 187.6291 172.4769 14.96721512708411
M-CUBED & EXP-1 PRIME   
1 37855U 11061F   23209.39621504  .00019083  00000+0  56269-3 0  9994
2 37855 101.7066 194.3871 0112205 273.3306  85.5088 15.29055309642857
AEROCUBE 4.5A           
1 38767U 12048K   23209.31727344  .00007114  00000+0  48306-3 0  9999
2 38767  64.6637 270.9118 0117224 141.2996 219.6594 15.01655768211567
AEROCUBE 4.5B           
1 38768U 12048L   23209.43759841  .00008777  00000+0  49917-3 0  9995
2 38768  64.6621 213.1994 0096230 134.2845 226.6222 15.09537008212190
STRAND-1                
1 39090U 13009E   23209.47249163  .00000373  00000+0  14386-3 0  9993
2 39090  98.3881  41.6984 0009770 135.9319 224.2647 14.35640829545649
BRITE-AUSTRIA           
1 39091U 13009F   23209.47459364  .00000249  00000+0  10114-3 0  9997
2 39091  98.3911  40.9334 0011111 143.0804 217.1148 14.35514869545670
SOMP                    
1 39134U 13015E   23209.54425829  .00215703  00000+0  13363-2 0  9990
2 39134  64.8411 140.9874 0017892 258.7637 101.1507 15.75966718569475
BEESAT-3                
1 39135U 13015F   23209.33262117  .00041869  00000+0  82415-3 0  9992
2 39135  64.8547 198.5491 0017557 251.6167 108.3064 15.46851012568292
BEESAT-2                
1 39136U 13015G   23209.40374610  .00037079  00000+0  82268-3 0  9997
2 39136  64.8649 210.6392 0027721 272.7535  87.0431 15.43130150568032
NEE-01 PEGASO           
1 39151U 13018B   23209.28200342  .00002317  00000+0  29119-3 0  9996
2 39151  98.0121 319.5347 0016333  23.0591 337.1352 14.83010794553778
ESTCUBE 1               
1 39161U 13021C   23209.14285867  .00001949  00000+0  30052-3 0  9999
2 39161  97.8699 280.2458 0009063 189.5278 170.5760 14.74482306549167
POPACS 1                
1 39268U 13055D   23209.12026990  .00039182  00000+0  85158-3 0  9999
2 39268  80.9918 157.5101 0499158  39.9593 323.7241 14.68904320512444
POPACS 2                
1 39269U 13055E   23209.38166547  .00008861  00000+0  22726-3 0  9993
2 39269  81.0061 228.3876 0601265 223.9506 131.2365 14.44048176508520
POPACS 3                
1 39270U 13055F   23209.19877889  .00007887  00000+0  22864-3 0  9992
2 39270  81.0114 269.9587 0658277 341.1880  16.5961 14.29402551486429
ZACUBE-1 (TSHEPISOSAT)  
1 39417U 13066B   23209.53314021  .00002662  00000+0  30793-3 0  9995
2 39417  97.6869 169.7636 0055467 149.9052 210.5370 14.85258453523335
WNISAT-1                
1 39423U 13066H   23209.57162194  .00000675  00000+0  14071-3 0  9991
2 39423  97.6992  64.9791 0171343 307.7520  50.8258 14.54273480513245
TRITON-1                
1 39427U 13066M   23209.25319686  .00003500  00000+0  52494-3 0  9991
2 39427  97.8336 133.5698 0108979  46.7075 314.3158 14.71229732518390
DELFI-N3XT              
1 39428U 13066N   23209.55050738  .00005701  00000+0  81120-3 0  9998
2 39428  97.8315 132.9239 0111578  56.9485 304.2381 14.72994521518223
GOMX-1                  
1 39430U 13066Q   23209.52761775  .00001429  00000+0  25435-3 0  9998
2 39430  97.7750  98.2569 0144386 202.0569 157.4380 14.61996652515395
CUBEBUG-2 (LO-74)       
1 39440U 13066AA  23209.42170087  .00002600  00000+0  33766-3 0  9996
2 39440  97.7730 156.8394 0073235 252.7536 106.5652 14.79727012520250
NEE-02 KRYSAOR          
1 39441U 13066AB  23209.31868188  .00001929  00000+0  26415-3 0  9997
2 39441  97.7840 153.4962 0076160 270.6886  88.5599 14.77667695519923
FUNCUBE-1 (AO-73)       
1 39444U 13066AE  23209.38061709  .00004413  00000+0  48536-3 0  9990
2 39444  97.6732 172.1993 0054101 135.5452 225.0126 14.87023375521767
UWE-3                   
1 39446U 13066AG  23209.54247183  .00002524  00000+0  31098-3 0  9998
2 39446  97.7363 163.0935 0064420 202.4249 157.4147 14.82344857520551
BRITE-CA1 (TORONTO)     
1 40020U 14033L   23209.32493534  .00001066  00000+0  18372-3 0  9992
2 40020  97.8313 354.1591 0086213  49.6276 311.2415 14.68100926487183
DUCHIFAT-1              
1 40021U 14033M   23209.36056173  .00006472  00000+0  54460-3 0  9995
2 40021  98.0580 174.6619 0011759 134.0253 226.1940 14.98556573495357
NANOSATC-BR1            
1 40024U 14033Q   23209.45025082  .00004895  00000+0  43640-3 0  9998
2 40024  98.0298 165.6272 0011807 137.4921 222.7216 14.96429543494580
QB50P1                  
1 40025U 14033R   23209.32093286  .00004346  00000+0  40959-3 0  9997
2 40025  97.9971 156.8291 0012023 150.8367 209.3526 14.94298593494283
QB50P2                  
1 40032U 14033Y   23209.53451520  .00004195  00000+0  40408-3 0  9998
2 40032  97.9679 150.6317 0011589 147.0896 213.1047 14.93450318494148
PERSEUS-M2              
1 40037U 14033AD  23209.54869548  .00001678  00000+0  18603-3 0  9992
2 40037  97.9070 135.1335 0013751 178.2521 181.8746 14.88567752493501
PERSEUS-M1              
1 40039U 14033AF  23209.31040042  .00001720  00000+0  19212-3 0  9994
2 40039  97.8925 131.8012 0013604 178.1566 181.9703 14.88231659493330
POLYITAN-1              
1 40042U 14033AJ  23209.49961733  .00004918  00000+0  45153-3 0  9991
2 40042  98.0095 159.0137 0013922 142.1231 218.0971 14.95254999494215
TIGRISAT                
1 40043U 14033AK  23209.45340630  .00001805  00000+0  25876-3 0  9997
2 40043  97.6677  22.4047 0056094 279.9201  79.5681 14.76669092489500
AEROCUBE 6A             
1 40045U 14033AM  23209.43442246  .00003403  00000+0  45613-3 0  9990
2 40045  97.6585  32.2056 0052922 263.7239  95.7943 14.79056701489722
AEROCUBE 6B             
1 40046U 14033AN  23209.44660986  .00003686  00000+0  48503-3 0  9999
2 40046  97.6532  30.7007 0051578 260.5066  99.0315 14.79826951489758
UKUBE-1                 
1 40074U 14037F   23209.52604114  .00003729  00000+0  40600-3 0  9992
2 40074  98.3413 116.1869 0005388  63.8442 296.3327 14.88673710490402
BRITE-PL2 (HEWELIUSZ)   
1 40119U 14049B   23209.50117653  .00001822  00000+0  21035-3 0  9993
2 40119  97.8826 306.2845 0016336 356.9629   3.1485 14.86765957484302
FIREBIRD 4              
1 40378U 15003C   23209.39195192  .01483452  15773-2  15466-2 0  9992
2 40378  99.0694 182.2677 0012106 101.7079 258.5558 16.10732954471186
GRIFEX                  
1 40379U 15003D   23208.58869501  .00041221  00000+0  81214-3 0  9997
2 40379  99.0769 155.1865 0078664 130.7795 230.0309 15.43731101469618
CP10 (EXOCUBE)          
1 40380U 15003E   23209.56373946  .00018808  00000+0  49288-3 0  9991
2 40380  99.0818 145.5377 0094454 163.0737 197.3689 15.34253170469066
EXACTVIEW 9             
1 40936U 15052G   23208.04044132  .00002800  00000+0  28594-3 0  9998
2 40936   6.0019 163.0141 0009465 137.0684 223.0183 14.78710253423162
AEROCUBE 5C             
1 40965U 15058B   23209.34716763  .00001979  00000+0  22786-3 0  9999
2 40965  64.7724 276.0534 0163623  56.6795 304.9857 14.79576931208932
AEROCUBE 7              
1 40966U 15058C   23209.32910989  .00002322  00000+0  25950-3 0  9993
2 40966  64.7710 272.0984 0161001  56.3572 305.2775 14.80557338208958
ATHENOXAT 1             
1 41168U 15077C   23209.34011651  .00640004  00000+0  24133-2 0  9995
2 41168  14.9831 253.0657 0003908 131.6033 228.4633 15.84832507422798
GALASSIA                
1 41170U 15077E   23209.56318591  .00052054  00000+0  10798-2 0  9999
2 41170  14.9874 276.4624 0005458 277.5869  82.3836 15.43770738422457
VELOX-II                
1 41171U 15077F   23209.58435085  .00020307  00000+0  66548-3 0  9991
2 41171  14.9921  24.2559 0006466  55.8487 304.2449 15.29098950421548
HORYU-4                 
1 41340U 16012D   23209.55418767  .00006340  00000+0  39047-3 0  9999
2 41340  31.0042 277.1394 0011016 297.0243  62.9270 15.08494112408972
E-ST@R-II               
1 41459U 16025D   23209.51256546  .00023324  00000+0  63398-3 0  9992
2 41459  98.1830  55.0797 0100142 315.3609  43.9598 15.32558788399227
AAUSAT 4                
1 41460U 16025E   23209.55890697  .00178635  00000+0  14098-2 0  9997
2 41460  98.1509  69.8814 0041511 256.2036 103.4603 15.69698520400238
BEESAT-4                
1 41619U 16040W   23209.56392414  .00132765  00000+0  11036-2 0  9998
2 41619  97.1519 259.7439 0004673 125.4820 234.6879 15.69733606383342
